{"type": "FeatureCollection", "features": [ {"type": "Feature", "properties": {"norad_id": 51444, "name": "CSG-2", "group": "resource", "lat": -47.851773305896195, "lon": -28.46151803888688, "alt_km": 630.1924232769643, "timestamp": "2025-12-04T21:36:15.532181+00:00", "meta": {"OBJECT_NAME": "CSG-2", "OBJECT_ID": "2022-008A", "EPOCH": "2025-12-04T14:05:46.032576", "MEAN_MOTION": 14.82151323, "ECCENTRICITY": 0.00014992, "INCLINATION": 97.8807, "RA_OF_ASC_NODE": 160.0333, "ARG_OF_PERICENTER": 89.2785, "MEAN_ANOMALY": 270.86, "EPHEMERIS_TYPE": 0, "CLASSIFICATION_TYPE": "U", "NORAD_CAT_ID": 51444, "ELEMENT_SET_NO": 999, "REV_AT_EPOCH": 20776, "BSTAR": 0.00014089467, "MEAN_MOTION_DOT": 1.07e-05, "MEAN_MOTION_DDOT": 0}, "tle": {"line1": "1 51444U 22008A   25338.58733834  .00001070  00000+0  14089-3 0  9994", "line2": "2 51444  97.8807 160.0333 0001499  89.2785 270.8600 14.82151323207762"}}, "geometry": {"type": "Point", "coordinates": [-28.46151803888688, -47.851773305896195]}}, {"type": "Feature", "properties": {"norad_id": 52912, "name": "GAOFEN-12 03", "group": "resource", "lat": -36.85281935953073, "lon": 40.49526703147038, "alt_km": 638.3187505685482, "timestamp": "2025-12-04T21:36:15.532191+00:00", "meta": {"OBJECT_NAME": "GAOFEN-12 03", "OBJECT_ID": "2022-069A", "EPOCH": "2025-12-04T15:45:24.369120", "MEAN_MOTION": 14.79578822, "ECCENTRICITY": 0.00023112, "INCLINATION": 97.8489, "RA_OF_ASC_NODE": 226.192, "ARG_OF_PERICENTER": 75.3839, "MEAN_ANOMALY": 284.7629, "EPHEMERIS_TYPE": 0, "CLASSIFICATION_TYPE": "U", "NORAD_CAT_ID": 52912, "ELEMENT_SET_NO": 999, "REV_AT_EPOCH": 18584, "BSTAR": 0.00034666446, "MEAN_MOTION_DOT": 2.546e-05, "MEAN_MOTION_DDOT": 0}, "tle": {"line1": "1 52912U 22069A   25338.65653205  .00002546  00000+0  34666-3 0  9995", "line2": "2 52912  97.8489 226.1920 0002311  75.3839 284.7629 14.79578822185847"}}, "geometry": {"type": "Point", "coordinates": [40.49526703147038, -36.85281935953073]}}, {"type": "Feature", "properties": {"norad_id": 54754, "name": "SWOT", "group": "resource", "lat": -77.40177971000935, "lon": -162.8293117034643, "alt_km": 900.5270886582011, "timestamp": "2025-12-04T21:36:15.532202+00:00", "meta": {"OBJECT_NAME": "SWOT", "OBJECT_ID": "2022-173A", "EPOCH": "2025-12-04T15:11:05.254944", "MEAN_MOTION": 14.00172854, "ECCENTRICITY": 3.31e-05, "INCLINATION": 77.6099, "RA_OF_ASC_NODE": 297.9341, "ARG_OF_PERICENTER": 136.9628, "MEAN_ANOMALY": 223.1549, "EPHEMERIS_TYPE": 0, "CLASSIFICATION_TYPE": "U", "NORAD_CAT_ID": 54754, "ELEMENT_SET_NO": 999, "REV_AT_EPOCH": 15192, "BSTAR": 0.00010700502, "MEAN_MOTION_DOT": 1.55e-06, "MEAN_MOTION_DDOT": 0}, "tle": {"line1": "1 54754U 22173A   25338.63269971  .00000155  00000+0  10701-3 0  9996", "line2": "2 54754  77.6099 297.9341 0000331 136.9628 223.1549 14.00172854151928"}}, "geometry": {"type": "Point", "coordinates": [-162.8293117034643, -77.40177971000935]}}, {"type": "Feature", "properties": {"norad_id": 57654, "name": "GAOFEN-12 04", "group": "resource", "lat": 23.86269107804906, "lon": -108.75054920488306, "alt_km": 629.180973036332, "timestamp": "2025-12-04T21:36:15.532212+00:00", "meta": {"OBJECT_NAME": "GAOFEN-12 04", "OBJECT_ID": "2023-123A", "EPOCH": "2025-12-04T15:00:13.692672", "MEAN_MOTION": 14.79661945, "ECCENTRICITY": 0.00014612, "INCLINATION": 97.9119, "RA_OF_ASC_NODE": 254.5056, "ARG_OF_PERICENTER": 73.0795, "MEAN_ANOMALY": 287.0576, "EPHEMERIS_TYPE": 0, "CLASSIFICATION_TYPE": "U", "NORAD_CAT_ID": 57654, "ELEMENT_SET_NO": 999, "REV_AT_EPOCH": 12385, "BSTAR": 0.00042859361, "MEAN_MOTION_DOT": 3.165e-05, "MEAN_MOTION_DDOT": 0}, "tle": {"line1": "1 57654U 23123A   25338.62515848  .00003165  00000+0  42859-3 0  9993", "line2": "2 57654  97.9119 254.5056 0001461  73.0795 287.0576 14.79661945123851"}}, "geometry": {"type": "Point", "coordinates": [-108.75054920488306, 23.86269107804906]}}, {"type": "Feature", "properties": {"norad_id": 59065, "name": "PARS 1", "group": "resource", "lat": 41.780736216434136, "lon": 136.3946810396562, "alt_km": 434.29343532807707, "timestamp": "2025-12-04T21:36:15.532222+00:00", "meta": {"OBJECT_NAME": "PARS 1", "OBJECT_ID": "2024-039Q", "EPOCH": "2025-12-04T14:46:29.138592", "MEAN_MOTION": 15.4070141, "ECCENTRICITY": 0.00127168, "INCLINATION": 97.4621, "RA_OF_ASC_NODE": 309.3787, "ARG_OF_PERICENTER": 96.293, "MEAN_ANOMALY": 263.9765, "EPHEMERIS_TYPE": 0, "CLASSIFICATION_TYPE": "U", "NORAD_CAT_ID": 59065, "ELEMENT_SET_NO": 999, "REV_AT_EPOCH": 9863, "BSTAR": 0.00053867986, "MEAN_MOTION_DOT": 0.00022004, "MEAN_MOTION_DDOT": 0}, "tle": {"line1": "1 59065U 24039Q   25338.61561503  .00022004  00000+0  53868-3 0  9991", "line2": "2 59065  97.4621 309.3787 0012716  96.2930 263.9765 15.40701410 98636"}}, "geometry": {"type": "Point", "coordinates": [136.3946810396562, 41.780736216434136]}}, {"type": "Feature", "properties": {"norad_id": 59371, "name": "RESURS-P 4", "group": "resource", "lat": 11.846765254103712, "lon": 106.92235462299239, "alt_km": 471.88209048752196, "timestamp": "2025-12-04T21:36:15.532232+00:00", "meta": {"OBJECT_NAME": "RESURS-P 4", "OBJECT_ID": "2024-061A", "EPOCH": "2025-12-04T16:10:15.377376", "MEAN_MOTION": 15.31987346, "ECCENTRICITY": 0.00020723, "INCLINATION": 97.2535, "RA_OF_ASC_NODE": 285.1697, "ARG_OF_PERICENTER": 55.0909, "MEAN_ANOMALY": 305.0527, "EPHEMERIS_TYPE": 0, "CLASSIFICATION_TYPE": "U", "NORAD_CAT_ID": 59371, "ELEMENT_SET_NO": 999, "REV_AT_EPOCH": 9397, "BSTAR": 0.00026094504, "MEAN_MOTION_DOT": 7.984e-05, "MEAN_MOTION_DDOT": 0}, "tle": {"line1": "1 59371U 24061A   25338.67378909  .00007984  00000+0  26095-3 0  9990", "line2": "2 59371  97.2535 285.1697 0002072  55.0909 305.0527 15.31987346 93972"}}, "geometry": {"type": "Point", "coordinates": [106.92235462299239, 11.846765254103712]}}, {"type": "Feature", "properties": {"norad_id": 59625, "name": "LEGION 1", "group": "resource", "lat": 65.90521176964218, "lon": -109.20554225827293, "alt_km": 512.1843754415213, "timestamp": "2025-12-04T21:36:15.532242+00:00", "meta": {"OBJECT_NAME": "LEGION 1", "OBJECT_ID": "2024-081A", "EPOCH": "2025-12-04T14:46:23.895840", "MEAN_MOTION": 15.1635631, "ECCENTRICITY": 0.0004608, "INCLINATION": 97.5231, "RA_OF_ASC_NODE": 53.3243, "ARG_OF_PERICENTER": 350.5952, "MEAN_ANOMALY": 9.5193, "EPHEMERIS_TYPE": 0, "CLASSIFICATION_TYPE": "U", "NORAD_CAT_ID": 59625, "ELEMENT_SET_NO": 999, "REV_AT_EPOCH": 8804, "BSTAR": 0.00059589708, "MEAN_MOTION_DOT": 0.00011506, "MEAN_MOTION_DDOT": 0}, "tle": {"line1": "1 59625U 24081A   25338.61555435  .00011506  00000+0  59590-3 0  9990", "line2": "2 59625  97.5231  53.3243 0004608 350.5952   9.5193 15.16356310 88041"}}, "geometry": {"type": "Point", "coordinates": [-109.20554225827293, 65.90521176964218]}}, {"type": "Feature", "properties": {"norad_id": 59626, "name": "LEGION 2", "group": "resource", "lat": -66.60920636688749, "lon": 71.48298988915379, "alt_km": 520.5364769979087, "timestamp": "2025-12-04T21:36:15.532252+00:00", "meta": {"OBJECT_NAME": "LEGION 2", "OBJECT_ID": "2024-081B", "EPOCH": "2025-12-04T15:34:03.277920", "MEAN_MOTION": 15.16366639, "ECCENTRICITY": 0.00061501, "INCLINATION": 97.5231, "RA_OF_ASC_NODE": 53.4438, "ARG_OF_PERICENTER": 326.475, "MEAN_ANOMALY": 33.6093, "EPHEMERIS_TYPE": 0, "CLASSIFICATION_TYPE": "U", "NORAD_CAT_ID": 59626, "ELEMENT_SET_NO": 999, "REV_AT_EPOCH": 8805, "BSTAR": 0.0005655511, "MEAN_MOTION_DOT": 0.00010921, "MEAN_MOTION_DDOT": 0}, "tle": {"line1": "1 59626U 24081B   25338.64864905  .00010921  00000+0  56555-3 0  9997", "line2": "2 59626  97.5231  53.4438 0006150 326.4750  33.6093 15.16366639 88054"}}, "geometry": {"type": "Point", "coordinates": [71.48298988915379, -66.60920636688749]}}, {"type": "Feature", "properties": {"norad_id": 60182, "name": "ALOS-4 (DAICHI-4)", "group": "resource", "lat": -82.02737598774529, "lon": 157.80037182958932, "alt_km": 639.2179625668705, "timestamp": "2025-12-04T21:36:15.532262+00:00", "meta": {"OBJECT_NAME": "ALOS-4 (DAICHI-4)", "OBJECT_ID": "2024-123A", "EPOCH": "2025-12-04T15:30:51.214176", "MEAN_MOTION": 14.7948083, "ECCENTRICITY": 0.000129, "INCLINATION": 97.9234, "RA_OF_ASC_NODE": 73.6086, "ARG_OF_PERICENTER": 98.409, "MEAN_ANOMALY": 261.7268, "EPHEMERIS_TYPE": 0, "CLASSIFICATION_TYPE": "U", "NORAD_CAT_ID": 60182, "ELEMENT_SET_NO": 999, "REV_AT_EPOCH": 7711, "BSTAR": -1.2766e-05, "MEAN_MOTION_DOT": -1.47e-06, "MEAN_MOTION_DDOT": 0}, "tle": {"line1": "1 60182U 24123A   25338.64642609 -.00000147  00000+0 -12766-4 0  9996", "line2": "2 60182  97.9234  73.6086 0001290  98.4090 261.7268 14.79480830 77117"}}, "geometry": {"type": "Point", "coordinates": [157.80037182958932, -82.02737598774529]}}, {"type": "Feature", "properties": {"norad_id": 60452, "name": "LEGION 3", "group": "resource", "lat": -41.70708829453761, "lon": -70.93795612219297, "alt_km": 529.4306877606132, "timestamp": "2025-12-04T21:36:15.532287+00:00", "meta": {"OBJECT_NAME": "LEGION 3", "OBJECT_ID": "2024-146A", "EPOCH": "2025-12-04T12:25:22.661760", "MEAN_MOTION": 15.15626149, "ECCENTRICITY": 0.00139031, "INCLINATION": 45.0023, "RA_OF_ASC_NODE": 354.2057, "ARG_OF_PERICENTER": 152.227, "MEAN_ANOMALY": 207.9353, "EPHEMERIS_TYPE": 0, "CLASSIFICATION_TYPE": "U", "NORAD_CAT_ID": 60452, "ELEMENT_SET_NO": 999, "REV_AT_EPOCH": 7248, "BSTAR": 0.00060584154, "MEAN_MOTION_DOT": 0.00011489, "MEAN_MOTION_DDOT": 0}, "tle": {"line1": "1 60452U 24146A   25338.51762340  .00011489  00000+0  60584-3 0  9991", "line2": "2 60452  45.0023 354.2057 0013903 152.2270 207.9353 15.15626149 72484"}}, "geometry": {"type": "Point", "coordinates": [-70.93795612219297, -41.70708829453761]}}]}